*******************************************************************************
Ephemeris / WWW_USER Fri Mar  7 09:56:56 2025 Pasadena, USA      / Horizons    
*******************************************************************************
Target body name: 358P/PANSTARRS                  {source: JPL#33}
Center body name: Earth (399)                     {source: DE441}
Center-site name: Mauna Kea
*******************************************************************************
Start time      : A.D. 2018-Dec-31 04:03:00.0000 UT      
Stop  time      : A.D. 2018-Dec-31 16:46:00.0000 UT      
Step-size       : 1 minutes
*******************************************************************************
Target pole/equ : undefined
Target radii    : undefined                                                    
Center geodetic : 204.5278, 19.8260847, 4.21024   {E-lon(deg),Lat(deg),Alt(km)}
Center cylindric: 204.5278, 6006.35451, 2151.0229 {E-lon(deg),Dxy(km),Dz(km)}
Center pole/equ : ITRF93                          {East-longitude positive}
Center radii    : 6378.137, 6378.137, 6356.752 km {Equator_a, b, pole_c}       
Target primary  : Sun
Vis. interferer : MOON (R_eq= 1737.400) km        {source: DE441}
Rel. light bend : Sun                             {source: DE441}
Rel. lght bnd GM: 1.3271E+11 km^3/s^2                                          
Small-body perts: Yes                             {source: SB441-N16}
Atmos refraction: NO (AIRLESS)
RA format       : HMS
Time format     : CAL 
Calendar mode   : Mixed Julian/Gregorian
RTS-only print  : NO       
EOP file        : eop.250306.p250602                                           
EOP coverage    : DATA-BASED 1962-JAN-20 TO 2025-MAR-06. PREDICTS-> 2025-JUN-01
Units conversion: 1 au= 149597870.700 km, c= 299792.458 km/s, 1 day= 86400.0 s 
Table cut-offs 1: Elevation (-90.0deg=NO ),Airmass (>38.000=NO), Daylight (YES)
Table cut-offs 2: Solar elongation (  0.0,180.0=NO ),Local Hour Angle( 0.0=NO )
Table cut-offs 3: RA/DEC angular rate (     0.0=NO )                           
*******************************************************************************
Initial IAU76/J2000 heliocentric ecliptic osculating elements (au, days, deg.):
  EPOCH=  2459793.5 ! 2022-Aug-02.0000000 (TDB)    RMSW= n.a.                  
   EC= .2388922136090974   QR= 2.394903345037887   TP= 2460259.6862889272      
   OM= 85.70246509974154   W= 299.7728624007243    IN= 11.06025031481611       
  Equivalent ICRF heliocentric cartesian coordinates (au, au/d):
   X= 3.243054425204740E-01  Y=-2.897679241187805E+00  Z=-1.376383147061824E+00
  VX= 8.746409534656921E-03 VY= 3.598394346577952E-03 VZ=-2.469697424538527E-04
Comet physical (GM= km^3/s^2; RAD= km):                                        
   GM= n.a.                RAD= n.a.                                           
   M1=  7.8      M2=  17.2     k1=  30.    k2=  5.      PHCOF=  .030           
Comet non-gravitational force model (AMRAT=m^2/kg;A1-A3=au/d^2;DT=days;R0=au): 
   AMRAT=  0.                                      DT=  0.                     
   A1= 0.                  A2= -2.303385920823E-10 A3= 0.                      
 Standard model:                                                               
   ALN=  .1112620426   NK=  4.6142   NM=  2.15     NN=  5.093    R0=  2.808    
*******************************************************************************
 Date__(UT)__HR:MN     R.A._________(ICRF)_________DEC
******************************************************
$$SOE
 2018-Dec-31 13:48  m  06 17 44.089396 +26 28 13.41078
 2018-Dec-31 13:49  m  06 17 44.048268 +26 28 13.57443
 2018-Dec-31 13:50  m  06 17 44.007146 +26 28 13.73805
 2018-Dec-31 13:51  m  06 17 43.966030 +26 28 13.90164
 2018-Dec-31 13:52  m  06 17 43.924919 +26 28 14.06521
 2018-Dec-31 13:53  m  06 17 43.883814 +26 28 14.22876
 2018-Dec-31 13:54  m  06 17 43.842715 +26 28 14.39229
 2018-Dec-31 13:55  m  06 17 43.801622 +26 28 14.55579
 2018-Dec-31 13:56  m  06 17 43.760535 +26 28 14.71927
 2018-Dec-31 13:57  m  06 17 43.719454 +26 28 14.88272
 2018-Dec-31 13:58  m  06 17 43.678378 +26 28 15.04616
 2018-Dec-31 13:59  m  06 17 43.637309 +26 28 15.20957
 2018-Dec-31 14:00  m  06 17 43.596245 +26 28 15.37296
 2018-Dec-31 14:01  m  06 17 43.555188 +26 28 15.53633
 2018-Dec-31 14:02  m  06 17 43.514136 +26 28 15.69967
 2018-Dec-31 14:03  m  06 17 43.473090 +26 28 15.86300
 2018-Dec-31 14:04  m  06 17 43.432051 +26 28 16.02630
 2018-Dec-31 14:05  m  06 17 43.391017 +26 28 16.18958
 2018-Dec-31 14:06  m  06 17 43.349989 +26 28 16.35284
 2018-Dec-31 14:07  m  06 17 43.308968 +26 28 16.51608
 2018-Dec-31 14:08  m  06 17 43.267952 +26 28 16.67930
 2018-Dec-31 14:09  m  06 17 43.226943 +26 28 16.84250
 2018-Dec-31 14:10  m  06 17 43.185939 +26 28 17.00567
 2018-Dec-31 14:11  m  06 17 43.144942 +26 28 17.16883
 2018-Dec-31 14:12  m  06 17 43.103951 +26 28 17.33196
 2018-Dec-31 14:13  m  06 17 43.062966 +26 28 17.49508
 2018-Dec-31 14:14  m  06 17 43.021987 +26 28 17.65817
 2018-Dec-31 14:15  m  06 17 42.981014 +26 28 17.82125
 2018-Dec-31 14:16  m  06 17 42.940047 +26 28 17.98430
 2018-Dec-31 14:17  m  06 17 42.899087 +26 28 18.14734
 2018-Dec-31 14:18  m  06 17 42.858132 +26 28 18.31036
 2018-Dec-31 14:19  m  06 17 42.817184 +26 28 18.47335
 2018-Dec-31 14:20  m  06 17 42.776242 +26 28 18.63633
 2018-Dec-31 14:21  m  06 17 42.735307 +26 28 18.79929
 2018-Dec-31 14:22  m  06 17 42.694377 +26 28 18.96223
 2018-Dec-31 14:23  m  06 17 42.653454 +26 28 19.12515
 2018-Dec-31 14:24  m  06 17 42.612537 +26 28 19.28806
 2018-Dec-31 14:25  m  06 17 42.571626 +26 28 19.45094
 2018-Dec-31 14:26  m  06 17 42.530722 +26 28 19.61381
 2018-Dec-31 14:27  m  06 17 42.489824 +26 28 19.77666
 2018-Dec-31 14:28  m  06 17 42.448932 +26 28 19.93949
 2018-Dec-31 14:29  m  06 17 42.408046 +26 28 20.10230
 2018-Dec-31 14:30  m  06 17 42.367167 +26 28 20.26510
 2018-Dec-31 14:31  m  06 17 42.326294 +26 28 20.42787
 2018-Dec-31 14:32  m  06 17 42.285428 +26 28 20.59064
 2018-Dec-31 14:33  m  06 17 42.244568 +26 28 20.75338
 2018-Dec-31 14:34  m  06 17 42.203714 +26 28 20.91611
 2018-Dec-31 14:35  m  06 17 42.162866 +26 28 21.07882
 2018-Dec-31 14:36  m  06 17 42.122025 +26 28 21.24151
 2018-Dec-31 14:37  m  06 17 42.081191 +26 28 21.40419
 2018-Dec-31 14:38  m  06 17 42.040363 +26 28 21.56685
 2018-Dec-31 14:39  m  06 17 41.999541 +26 28 21.72950
 2018-Dec-31 14:40  m  06 17 41.958726 +26 28 21.89213
 2018-Dec-31 14:41  m  06 17 41.917917 +26 28 22.05474
 2018-Dec-31 14:42  m  06 17 41.877114 +26 28 22.21734
 2018-Dec-31 14:43  m  06 17 41.836318 +26 28 22.37992
 2018-Dec-31 14:44  m  06 17 41.795529 +26 28 22.54249
 2018-Dec-31 14:45  m  06 17 41.754746 +26 28 22.70504
 2018-Dec-31 14:46  m  06 17 41.713969 +26 28 22.86758
 2018-Dec-31 14:47  m  06 17 41.673199 +26 28 23.03010
 2018-Dec-31 14:48  m  06 17 41.632436 +26 28 23.19261
 2018-Dec-31 14:49  m  06 17 41.591679 +26 28 23.35510
 2018-Dec-31 14:50  m  06 17 41.550928 +26 28 23.51758
 2018-Dec-31 14:51  m  06 17 41.510184 +26 28 23.68005
 2018-Dec-31 14:52  m  06 17 41.469447 +26 28 23.84250
 2018-Dec-31 14:53  m  06 17 41.428716 +26 28 24.00494
 2018-Dec-31 14:54  m  06 17 41.387992 +26 28 24.16736
 2018-Dec-31 14:55  m  06 17 41.347274 +26 28 24.32977
 2018-Dec-31 14:56  m  06 17 41.306563 +26 28 24.49217
 2018-Dec-31 14:57  m  06 17 41.265859 +26 28 24.65455
 2018-Dec-31 14:58  m  06 17 41.225161 +26 28 24.81692
 2018-Dec-31 14:59  m  06 17 41.184470 +26 28 24.97928
 2018-Dec-31 15:00  m  06 17 41.143785 +26 28 25.14163
 2018-Dec-31 15:01  m  06 17 41.103107 +26 28 25.30396
 2018-Dec-31 15:02  m  06 17 41.062436 +26 28 25.46629
 2018-Dec-31 15:03  m  06 17 41.021771 +26 28 25.62860
 2018-Dec-31 15:04  m  06 17 40.981113 +26 28 25.79089
 2018-Dec-31 15:05  m  06 17 40.940461 +26 28 25.95318
 2018-Dec-31 15:06  m  06 17 40.899816 +26 28 26.11545
 2018-Dec-31 15:07  m  06 17 40.859178 +26 28 26.27772
 2018-Dec-31 15:08  m  06 17 40.818547 +26 28 26.43997
 2018-Dec-31 15:09  m  06 17 40.777922 +26 28 26.60221
 2018-Dec-31 15:10  m  06 17 40.737304 +26 28 26.76444
 2018-Dec-31 15:11  m  06 17 40.696692 +26 28 26.92666
 2018-Dec-31 15:12  m  06 17 40.656087 +26 28 27.08887
 2018-Dec-31 15:13  m  06 17 40.615489 +26 28 27.25106
 2018-Dec-31 15:14  m  06 17 40.574898 +26 28 27.41325
 2018-Dec-31 15:15  m  06 17 40.534313 +26 28 27.57543
 2018-Dec-31 15:16  m  06 17 40.493736 +26 28 27.73760
 2018-Dec-31 15:17  m  06 17 40.453164 +26 28 27.89976
 2018-Dec-31 15:18  m  06 17 40.412600 +26 28 28.06191
 2018-Dec-31 15:19  m  06 17 40.372042 +26 28 28.22405
 2018-Dec-31 15:20  m  06 17 40.331491 +26 28 28.38618
 2018-Dec-31 15:21  m  06 17 40.290947 +26 28 28.54830
 2018-Dec-31 15:22  m  06 17 40.250410 +26 28 28.71041
 2018-Dec-31 15:23  m  06 17 40.209879 +26 28 28.87251
 2018-Dec-31 15:24  m  06 17 40.169355 +26 28 29.03461
 2018-Dec-31 15:25  m  06 17 40.128838 +26 28 29.19670
 2018-Dec-31 15:26  m  06 17 40.088327 +26 28 29.35878
 2018-Dec-31 15:27  m  06 17 40.047824 +26 28 29.52085
 2018-Dec-31 15:28  m  06 17 40.007327 +26 28 29.68291
 2018-Dec-31 15:29  m  06 17 39.966837 +26 28 29.84497
 2018-Dec-31 15:30  m  06 17 39.926354 +26 28 30.00701
 2018-Dec-31 15:31  m  06 17 39.885877 +26 28 30.16905
 2018-Dec-31 15:32  m  06 17 39.845408 +26 28 30.33109
 2018-Dec-31 15:33  m  06 17 39.804945 +26 28 30.49312
 2018-Dec-31 15:34  m  06 17 39.764489 +26 28 30.65514
 2018-Dec-31 15:35  m  06 17 39.724039 +26 28 30.81715
 2018-Dec-31 15:36  m  06 17 39.683597 +26 28 30.97916
 2018-Dec-31 15:37  m  06 17 39.643161 +26 28 31.14116
 2018-Dec-31 15:38 Am  06 17 39.602732 +26 28 31.30315
 2018-Dec-31 15:39 Am  06 17 39.562311 +26 28 31.46514
 2018-Dec-31 15:40 Am  06 17 39.521895 +26 28 31.62712
 2018-Dec-31 15:41 Am  06 17 39.481487 +26 28 31.78910
 2018-Dec-31 15:42 Am  06 17 39.441086 +26 28 31.95107
 2018-Dec-31 15:43 Am  06 17 39.400691 +26 28 32.11304
 2018-Dec-31 15:44 Am  06 17 39.360303 +26 28 32.27500
